[{"OBJECT_NAME":"KUIPER-00121","OBJECT_ID":"2025-228D","EPOCH":"2026-03-09T22:33:16.731072","MEAN_MOTION":14.79887905,"ECCENTRICITY":8.902e-5,"INCLINATION":51.9015,"RA_OF_ASC_NODE":351.9872,"ARG_OF_PERICENTER":113.9064,"MEAN_ANOMALY":246.1992,"EPHEMERIS_TYPE":0,"CLASSIFICATION_TYPE":"U","NORAD_CAT_ID":65950,"ELEMENT_SET_NO":999,"REV_AT_EPOCH":2337,"BSTAR":-3.737894e-5,"MEAN_MOTION_DOT":-5.06e-6,"MEAN_MOTION_DDOT":0},{"OBJECT_NAME":"LQSAT","OBJECT_ID":"2015-057A","EPOCH":"2026-03-09T22:30:52.911360","MEAN_MOTION":14.76636989,"ECCENTRICITY":0.00157175,"INCLINATION":97.6668,"RA_OF_ASC_NODE":67.2535,"ARG_OF_PERICENTER":232.0194,"MEAN_ANOMALY":127.9598,"EPHEMERIS_TYPE":0,"CLASSIFICATION_TYPE":"U","NORAD_CAT_ID":40958,"ELEMENT_SET_NO":999,"REV_AT_EPOCH":56066,"BSTAR":0.00010941042,"MEAN_MOTION_DOT":7.18e-6,"MEAN_MOTION_DDOT":0}]
